ATLAS CENTAUR R/B       
1 06155U 72065B   26026.53022053  .00002100  00000+0  28999-3 0  9995
2 06155  34.9997 192.7981 0033659  14.1366 346.0270 14.77552465835020
SL-8 R/B                
1 08459U 75112B   26026.48891470  .00000397  00000+0  13915-3 0  9999
2 08459  74.0607  96.5482 0015997 202.7028 157.3420 14.38181001625808
SL-3 R/B                
1 10114U 77057B   26026.42232526  .00017204  00000+0  37581-3 0  9995
2 10114  97.5717 196.5391 0008564  77.7858 282.4348 15.44222777661807
SEASAT 1                
1 10967U 78064A   26026.50806431  .00000630  00000+0  21463-3 0  9998
2 10967 108.0171  36.9743 0001279 287.1049  72.9957 14.46120617500416
SL-14 R/B               
1 11267U 79011B   26026.39265618  .00001179  00000+0  11406-3 0  9993
2 11267  82.5262 136.6974 0015675 193.6081 166.4719 14.91847691522476
SL-8 R/B                
1 11574U 79089B   26026.50526311  .00000563  00000+0  17816-3 0  9999
2 11574  74.0688 169.1250 0015998 348.1126  11.9650 14.42321079430028
SL-14 R/B               
1 11672U 80005B   26026.37791442  .00001191  00000+0  11820-3 0  9999
2 11672  82.5164 347.3591 0014487 308.7400  51.2523 14.90865385470180
SL-8 R/B                
1 12139U 81003B   26026.32864181  .00031194  00000+0  82850-3 0  9990
2 12139  82.9391 329.1461 0267205 326.7745  31.6943 15.09184953308284
SL-3 R/B                
1 12465U 81046B   26026.45846372  .00016423  00000+0  39761-3 0  9996
2 12465  81.2339 340.3957 0019728 160.7638 199.4354 15.40768969431924
SL-3 R/B                
1 12904U 81103B   26026.47458704  .00007931  00000+0  35717-3 0  9999
2 12904  81.1573 262.9433 0014438  68.4759 291.8009 15.20847257966811
SL-3 R/B                
1 13068U 82013B   26026.50098330  .00006179  00000+0  27144-3 0  9999
2 13068  81.1731 210.1969 0022230 323.9295  36.0435 15.21535957397936
SL-3 R/B                
1 13154U 82039B   26026.44457856  .00003786  00000+0  23022-3 0  9990
2 13154  81.1647 264.6463 0030058 102.6880 257.7708 15.09835709375261
