CCSDS_OMM_VERS = 2.0
CREATION_DATE  = 
ORIGINATOR     = 

OBJECT_NAME    = ATLAS CENTAUR R/B
OBJECT_ID      = 1972-065B
CENTER_NAME    = EARTH
REF_FRAME      = TEME
TIME_SYSTEM    = UTC
MEAN_ELEMENT_THEORY = SGP/SGP4

EPOCH          = 2026-01-26T12:43:31.053792
MEAN_MOTION    = 14.77552465
ECCENTRICITY   = .0033659
INCLINATION    = 34.9997
RA_OF_ASC_NODE = 192.7981
ARG_OF_PERICENTER = 14.1366
MEAN_ANOMALY   = 346.0270

EPHEMERIS_TYPE = 0
CLASSIFICATION_TYPE = U
NORAD_CAT_ID   = 6155
ELEMENT_SET_NO = 999
REV_AT_EPOCH   = 83502
BSTAR          = .28999E-3
MEAN_MOTION_DOT = .21E-4
MEAN_MOTION_DDOT = 0

CCSDS_OMM_VERS = 2.0
CREATION_DATE  = 
ORIGINATOR     = 

OBJECT_NAME    = SL-8 R/B
OBJECT_ID      = 1975-112B
CENTER_NAME    = EARTH
REF_FRAME      = TEME
TIME_SYSTEM    = UTC
MEAN_ELEMENT_THEORY = SGP/SGP4

EPOCH          = 2026-01-26T11:44:02.230080
MEAN_MOTION    = 14.38181001
ECCENTRICITY   = .0015997
INCLINATION    = 74.0607
RA_OF_ASC_NODE = 96.5482
ARG_OF_PERICENTER = 202.7028
MEAN_ANOMALY   = 157.3420

EPHEMERIS_TYPE = 0
CLASSIFICATION_TYPE = U
NORAD_CAT_ID   = 8459
ELEMENT_SET_NO = 999
REV_AT_EPOCH   = 62580
BSTAR          = .13915E-3
MEAN_MOTION_DOT = .397E-5
MEAN_MOTION_DDOT = 0

CCSDS_OMM_VERS = 2.0
CREATION_DATE  = 
ORIGINATOR     = 

OBJECT_NAME    = SL-3 R/B
OBJECT_ID      = 1977-057B
CENTER_NAME    = EARTH
REF_FRAME      = TEME
TIME_SYSTEM    = UTC
MEAN_ELEMENT_THEORY = SGP/SGP4

EPOCH          = 2026-01-26T10:08:08.902464
MEAN_MOTION    = 15.44222777
ECCENTRICITY   = .0008564
INCLINATION    = 97.5717
RA_OF_ASC_NODE = 196.5391
ARG_OF_PERICENTER = 77.7858
MEAN_ANOMALY   = 282.4348

EPHEMERIS_TYPE = 0
CLASSIFICATION_TYPE = U
NORAD_CAT_ID   = 10114
ELEMENT_SET_NO = 999
REV_AT_EPOCH   = 66180
BSTAR          = .37581E-3
MEAN_MOTION_DOT = .17204E-3
MEAN_MOTION_DDOT = 0

CCSDS_OMM_VERS = 2.0
CREATION_DATE  = 
ORIGINATOR     = 

OBJECT_NAME    = SEASAT 1
OBJECT_ID      = 1978-064A
CENTER_NAME    = EARTH
REF_FRAME      = TEME
TIME_SYSTEM    = UTC
MEAN_ELEMENT_THEORY = SGP/SGP4

EPOCH          = 2026-01-26T12:11:36.756384
MEAN_MOTION    = 14.46120617
ECCENTRICITY   = .0001279
INCLINATION    = 108.0171
RA_OF_ASC_NODE = 36.9743
ARG_OF_PERICENTER = 287.1049
MEAN_ANOMALY   = 72.9957

EPHEMERIS_TYPE = 0
CLASSIFICATION_TYPE = U
NORAD_CAT_ID   = 10967
ELEMENT_SET_NO = 999
REV_AT_EPOCH   = 50041
BSTAR          = .21463E-3
MEAN_MOTION_DOT = .63E-5
MEAN_MOTION_DDOT = 0

CCSDS_OMM_VERS = 2.0
CREATION_DATE  = 
ORIGINATOR     = 

OBJECT_NAME    = SL-14 R/B
OBJECT_ID      = 1979-011B
CENTER_NAME    = EARTH
REF_FRAME      = TEME
TIME_SYSTEM    = UTC
MEAN_ELEMENT_THEORY = SGP/SGP4

EPOCH          = 2026-01-26T09:25:25.493952
MEAN_MOTION    = 14.91847691
ECCENTRICITY   = .0015675
INCLINATION    = 82.5262
RA_OF_ASC_NODE = 136.6974
ARG_OF_PERICENTER = 193.6081
MEAN_ANOMALY   = 166.4719

EPHEMERIS_TYPE = 0
CLASSIFICATION_TYPE = U
NORAD_CAT_ID   = 11267
ELEMENT_SET_NO = 999
REV_AT_EPOCH   = 52247
BSTAR          = .11406E-3
MEAN_MOTION_DOT = .1179E-4
MEAN_MOTION_DDOT = 0

CCSDS_OMM_VERS = 2.0
CREATION_DATE  = 
ORIGINATOR     = 

OBJECT_NAME    = SL-8 R/B
OBJECT_ID      = 1979-089B
CENTER_NAME    = EARTH
REF_FRAME      = TEME
TIME_SYSTEM    = UTC
MEAN_ELEMENT_THEORY = SGP/SGP4

EPOCH          = 2026-01-26T12:07:34.732704
MEAN_MOTION    = 14.42321079
ECCENTRICITY   = .0015998
INCLINATION    = 74.0688
RA_OF_ASC_NODE = 169.1250
ARG_OF_PERICENTER = 348.1126
MEAN_ANOMALY   = 11.9650

EPHEMERIS_TYPE = 0
CLASSIFICATION_TYPE = U
NORAD_CAT_ID   = 11574
ELEMENT_SET_NO = 999
REV_AT_EPOCH   = 43002
BSTAR          = .17816E-3
MEAN_MOTION_DOT = .563E-5
MEAN_MOTION_DDOT = 0

CCSDS_OMM_VERS = 2.0
CREATION_DATE  = 
ORIGINATOR     = 

OBJECT_NAME    = SL-14 R/B
OBJECT_ID      = 1980-005B
CENTER_NAME    = EARTH
REF_FRAME      = TEME
TIME_SYSTEM    = UTC
MEAN_ELEMENT_THEORY = SGP/SGP4

EPOCH          = 2026-01-26T09:04:11.805888
MEAN_MOTION    = 14.90865385
ECCENTRICITY   = .0014487
INCLINATION    = 82.5164
RA_OF_ASC_NODE = 347.3591
ARG_OF_PERICENTER = 308.7400
MEAN_ANOMALY   = 51.2523

EPHEMERIS_TYPE = 0
CLASSIFICATION_TYPE = U
NORAD_CAT_ID   = 11672
ELEMENT_SET_NO = 999
REV_AT_EPOCH   = 47018
BSTAR          = .1182E-3
MEAN_MOTION_DOT = .1191E-4
MEAN_MOTION_DDOT = 0

CCSDS_OMM_VERS = 2.0
CREATION_DATE  = 
ORIGINATOR     = 

OBJECT_NAME    = SL-8 R/B
OBJECT_ID      = 1981-003B
CENTER_NAME    = EARTH
REF_FRAME      = TEME
TIME_SYSTEM    = UTC
MEAN_ELEMENT_THEORY = SGP/SGP4

EPOCH          = 2026-01-26T07:53:14.652384
MEAN_MOTION    = 15.09184953
ECCENTRICITY   = .0267205
INCLINATION    = 82.9391
RA_OF_ASC_NODE = 329.1461
ARG_OF_PERICENTER = 326.7745
MEAN_ANOMALY   = 31.6943

EPHEMERIS_TYPE = 0
CLASSIFICATION_TYPE = U
NORAD_CAT_ID   = 12139
ELEMENT_SET_NO = 999
REV_AT_EPOCH   = 30828
BSTAR          = .8285E-3
MEAN_MOTION_DOT = .31194E-3
MEAN_MOTION_DDOT = 0

CCSDS_OMM_VERS = 2.0
CREATION_DATE  = 
ORIGINATOR     = 

OBJECT_NAME    = SL-3 R/B
OBJECT_ID      = 1981-046B
CENTER_NAME    = EARTH
REF_FRAME      = TEME
TIME_SYSTEM    = UTC
MEAN_ELEMENT_THEORY = SGP/SGP4

EPOCH          = 2026-01-26T11:00:11.265408
MEAN_MOTION    = 15.40768969
ECCENTRICITY   = .0019728
INCLINATION    = 81.2339
RA_OF_ASC_NODE = 340.3957
ARG_OF_PERICENTER = 160.7638
MEAN_ANOMALY   = 199.4354

EPHEMERIS_TYPE = 0
CLASSIFICATION_TYPE = U
NORAD_CAT_ID   = 12465
ELEMENT_SET_NO = 999
REV_AT_EPOCH   = 43192
BSTAR          = .39761E-3
MEAN_MOTION_DOT = .16423E-3
MEAN_MOTION_DDOT = 0

CCSDS_OMM_VERS = 2.0
CREATION_DATE  = 
ORIGINATOR     = 

OBJECT_NAME    = SL-3 R/B
OBJECT_ID      = 1981-103B
CENTER_NAME    = EARTH
REF_FRAME      = TEME
TIME_SYSTEM    = UTC
MEAN_ELEMENT_THEORY = SGP/SGP4

EPOCH          = 2026-01-26T11:23:24.320256
MEAN_MOTION    = 15.20847257
ECCENTRICITY   = .0014438
INCLINATION    = 81.1573
RA_OF_ASC_NODE = 262.9433
ARG_OF_PERICENTER = 68.4759
MEAN_ANOMALY   = 291.8009

EPHEMERIS_TYPE = 0
CLASSIFICATION_TYPE = U
NORAD_CAT_ID   = 12904
ELEMENT_SET_NO = 999
REV_AT_EPOCH   = 96681
BSTAR          = .35717E-3
MEAN_MOTION_DOT = .7931E-4
MEAN_MOTION_DDOT = 0

CCSDS_OMM_VERS = 2.0
CREATION_DATE  = 
ORIGINATOR     = 

OBJECT_NAME    = SL-3 R/B
OBJECT_ID      = 1982-013B
CENTER_NAME    = EARTH
REF_FRAME      = TEME
TIME_SYSTEM    = UTC
MEAN_ELEMENT_THEORY = SGP/SGP4

EPOCH          = 2026-01-26T12:01:24.957120
MEAN_MOTION    = 15.21535957
ECCENTRICITY   = .002223
INCLINATION    = 81.1731
RA_OF_ASC_NODE = 210.1969
ARG_OF_PERICENTER = 323.9295
MEAN_ANOMALY   = 36.0435

EPHEMERIS_TYPE = 0
CLASSIFICATION_TYPE = U
NORAD_CAT_ID   = 13068
ELEMENT_SET_NO = 999
REV_AT_EPOCH   = 39793
BSTAR          = .27144E-3
MEAN_MOTION_DOT = .6179E-4
MEAN_MOTION_DDOT = 0

CCSDS_OMM_VERS = 2.0
CREATION_DATE  = 
ORIGINATOR     = 

OBJECT_NAME    = SL-3 R/B
OBJECT_ID      = 1982-039B
CENTER_NAME    = EARTH
REF_FRAME      = TEME
TIME_SYSTEM    = UTC
MEAN_ELEMENT_THEORY = SGP/SGP4

EPOCH          = 2026-01-26T10:40:11.587584
MEAN_MOTION    = 15.09835709
ECCENTRICITY   = .0030058
INCLINATION    = 81.1647
RA_OF_ASC_NODE = 264.6463
ARG_OF_PERICENTER = 102.6880
MEAN_ANOMALY   = 257.7708

EPHEMERIS_TYPE = 0
CLASSIFICATION_TYPE = U
NORAD_CAT_ID   = 13154
ELEMENT_SET_NO = 999
REV_AT_EPOCH   = 37526
BSTAR          = .23022E-3
MEAN_MOTION_DOT = .3786E-4
MEAN_MOTION_DDOT = 0

